{
    "links": {
        "self": "http://www.neowsapp.com/rest/v1/neo/3609486?api_key=iIulBulltgU6a56xZRHN4H3l9WmuAYTsLGpBGhQ2"
    },
    "id": "3609486",
    "neo_reference_id": "3609486",
    "name": "(2012 SG58)",
    "designation": "2012 SG58",
    "nasa_jpl_url": "http://ssd.jpl.nasa.gov/sbdb.cgi?sstr=3609486",
    "absolute_magnitude_h": 23.1,
    "estimated_diameter": {
        "kilometers": {
            "estimated_diameter_min": 0.063760979,
            "estimated_diameter_max": 0.1425738833
        },
        "meters": {
            "estimated_diameter_min": 63.7609789875,
            "estimated_diameter_max": 142.5738833281
        },
        "miles": {
            "estimated_diameter_min": 0.0396192233,
            "estimated_diameter_max": 0.0885912765
        },
        "feet": {
            "estimated_diameter_min": 209.1895703015,
            "estimated_diameter_max": 467.7620993781
        }
    },
    "is_potentially_hazardous_asteroid": false,
    "close_approach_data": [
        {
            "close_approach_date": "2012-10-03",
            "close_approach_date_full": "2012-Oct-03 10:11",
            "epoch_date_close_approach": 1349259060000,
            "relative_velocity": {
                "kilometers_per_second": "16.375870972",
                "kilometers_per_hour": "58953.1354992104",
                "miles_per_hour": "36631.1857772733"
            },
            "miss_distance": {
                "astronomical": "0.0316760312",
                "lunar": "12.3219761368",
                "kilometers": "4738666.797573544",
                "miles": "2944471.0110771472"
            },
            "orbiting_body": "Earth"
        },
        {
            "close_approach_date": "2019-02-13",
            "close_approach_date_full": "2019-Feb-13 10:21",
            "epoch_date_close_approach": 1550053260000,
            "relative_velocity": {
                "kilometers_per_second": "10.8764656549",
                "kilometers_per_hour": "39155.2763577754",
                "miles_per_hour": "24329.5660235299"
            },
            "miss_distance": {
                "astronomical": "1.983328391",
                "lunar": "771.514744099",
                "kilometers": "296701702.80412717",
                "miles": "184361889.148088146"
            },
            "orbiting_body": "Juptr"
        }
    ],
    "orbital_data": {
        "orbit_id": "6",
        "orbit_determination_date": "2017-04-06 08:48:49",
        "first_observation_date": "2012-09-26",
        "last_observation_date": "2012-10-04",
        "data_arc_in_days": 8,
        "observations_used": 35,
        "orbit_uncertainty": "8",
        "minimum_orbit_intersection": ".00251074",
        "jupiter_tisserand_invariant": "2.867",
        "epoch_osculation": "2456198.5",
        "eccentricity": ".7089202880791937",
        "semi_major_axis": "2.841396939566968",
        "inclination": "6.446568969073026",
        "ascending_node_longitude": "14.75664556700739",
        "orbital_period": "1749.428870775891",
        "perihelion_distance": ".8270730026218137",
        "perihelion_argument": "52.92030141362367",
        "aphelion_distance": "4.855720876512123",
        "perihelion_time": "2456241.173672138819",
        "mean_anomaly": "351.2185501070635",
        "mean_motion": ".2057814444552616",
        "equinox": "J2000",
        "orbit_class": {
            "orbit_class_type": "APO",
            "orbit_class_description": "Near-Earth asteroid orbits which cross the Earth’s orbit similar to that of 1862 Apollo",
            "orbit_class_range": "a (semi-major axis) > 1.0 AU; q (perihelion) < 1.017 AU"
        }
    },
    "is_sentry_object": false
}